25853,GLOBALSTAR M051,1999,126.07,-1.0,-,51.98,Inactive,0,LEO,USA,Globalstar,Unknown,Unknown,Unknown,1 25853U 99037C   24023.76622121 -.00000063  00000+0  21334-3 0  9994,2 25853  51.9761 192.2061 0002142  51.6899 308.4104 11.42196090 74084,11.4219609,0.0002142,LEO
25854,GLOBALSTAR M030,1999,124.67,-1.0,-,51.99,Inactive,0,LEO,USA,Globalstar,Unknown,Unknown,Unknown,1 25854U 99037D   24024.21845361 -.00000053  00000+0  47537-3 0  9991,2 25854  51.9903  29.6460 0004136 210.4448 149.6129 11.55087151 91216,11.55087151,0.0004136,LEO
25873,GLOBALSTAR M026,1999,130.1,-1.0,-,52.0,Inactive,0,MEO,USA,Globalstar,Unknown,Unknown,Unknown,1 25873U 99041B   24023.90211417 -.00000073  00000+0 -31002-3 0  9994,2 25873  51.9972 236.2749 0002134 105.6586 355.8986 11.06835283 92185,11.06835283,0.0002134,MEO
25874,GLOBALSTAR M043,1999,127.92,-1.0,-,51.94,Inactive,0,LEO,USA,Globalstar,Unknown,Unknown,Unknown,1 25874U 99041C   24023.77985022 -.00000060  00000+0  25061-3 0  9993,2 25874  51.9363 194.7708 0013372 158.2090 302.5499 11.25674380 65394,11.2567438,0.0013372,LEO
25875,GLOBALSTAR M028,1999,115.15,-1.0,-,51.96,Inactive,0,LEO,USA,Globalstar,Unknown,Unknown,Unknown,1 25875U 99041D   24023.99033636 -.00000039  00000+0  39856-3 0  9996,2 25875  51.9620 274.3398 0064337  43.7973 316.7966 12.50548902126377,12.50548902,0.0064337,LEO
